IRIDIUM 150             
1 43257U 18030J   24004.92504714  .00000314  00000+0  10506-3 0  9997
2 43257  86.3975 304.2018 0002082  74.7155 285.4271 14.34216109301981
IRIDIUM 143             
1 43258U 18030K   24004.90601134  .00000223  00000+0  72557-4 0  9994
2 43258  86.3979 304.2663 0001914  78.7327 281.4084 14.34219828301912
IRIDIUM 161             
1 43478U 18047C   24004.80132081  .00000438  00000+0  12417-3 0  9991
2 43478  86.4493 102.2946 0002186  95.9524 264.1926 14.43289564296134
IRIDIUM 152             
1 43479U 18047D   24004.80896045  .00000282  00000+0  93677-4 0  9994
2 43479  86.3967 102.1503 0001883 101.9553 258.1854 14.34218369294294
IRIDIUM 147             
1 43480U 18047E   24004.81530140  .00000336  00000+0  11283-3 0  9990
2 43480  86.3969 102.1371 0002330  97.2754 262.8706 14.34219622294290
IRIDIUM 110             
1 43481U 18047F   24004.40303358  .00000355  00000+0  11957-3 0  9994
2 43481  86.3970 102.3782 0002471  92.1459 268.0020 14.34219660294225
IRIDIUM 162             
1 43482U 18047G   24004.79506476  .00000435  00000+0  12319-3 0  9995
2 43482  86.4492 102.1995 0002171  94.7249 265.4200 14.43287888296121
IRIDIUM 160             
1 43569U 18061A   24004.69771217  .00000273  00000+0  90325-4 0  9997
2 43569  86.3955  70.6072 0002230 107.5174 252.6266 14.34219136285164
